{"type": "FeatureCollection", "features": [ {"type": "Feature", "properties": {"norad_id": 28659, "name": "DIRECTV 8", "group": "intelsat", "lat": -0.03569728851697831, "lon": -90.91215704226256, "alt_km": 35772.63209230627, "timestamp": "2025-12-09T20:37:08.949380+00:00", "meta": {"OBJECT_NAME": "DIRECTV 8", "OBJECT_ID": "2005-019A", "EPOCH": "2025-12-09T12:12:55.941120", "MEAN_MOTION": 1.00271942, "ECCENTRICITY": 0.00031831, "INCLINATION": 0.0171, "RA_OF_ASC_NODE": 5.5935, "ARG_OF_PERICENTER": 257.2096, "MEAN_ANOMALY": 239.8843, "EPHEMERIS_TYPE": 0, "CLASSIFICATION_TYPE": "U", "NORAD_CAT_ID": 28659, "ELEMENT_SET_NO": 999, "REV_AT_EPOCH": 7517, "BSTAR": 0, "MEAN_MOTION_DOT": 3e-08, "MEAN_MOTION_DDOT": 0}, "tle": {"line1": "1 28659U 05019A   25343.50898080  .00000003  00000+0  00000+0 0  9991", "line2": "2 28659   0.0171   5.5935 0003183 257.2096 239.8843  1.00271942 75177"}}, "geometry": {"type": "Point", "coordinates": [-90.91215704226256, -0.03569728851697831]}}, {"type": "Feature", "properties": {"norad_id": 28702, "name": "GALAXY 28 (G-28)", "group": "intelsat", "lat": -1.7513851917337637, "lon": -60.568000257974376, "alt_km": 35777.61272293528, "timestamp": "2025-12-09T20:37:08.949392+00:00", "meta": {"OBJECT_NAME": "GALAXY 28 (G-28)", "OBJECT_ID": "2005-022A", "EPOCH": "2025-12-09T12:29:48.392736", "MEAN_MOTION": 1.00271081, "ECCENTRICITY": 0.00026859, "INCLINATION": 2.8104, "RA_OF_ASC_NODE": 81.3192, "ARG_OF_PERICENTER": 179.8142, "MEAN_ANOMALY": 276.1436, "EPHEMERIS_TYPE": 0, "CLASSIFICATION_TYPE": "U", "NORAD_CAT_ID": 28702, "ELEMENT_SET_NO": 999, "REV_AT_EPOCH": 5007, "BSTAR": 0, "MEAN_MOTION_DOT": -1.85e-06, "MEAN_MOTION_DDOT": 0}, "tle": {"line1": "1 28702U 05022A   25343.52069899 -.00000185  00000+0  00000+0 0  9996", "line2": "2 28702   2.8104  81.3192 0002685 179.8142 276.1436  1.00271081 50074"}}, "geometry": {"type": "Point", "coordinates": [-60.568000257974376, -1.7513851917337637]}}, {"type": "Feature", "properties": {"norad_id": 29236, "name": "GALAXY 16 (G-16)", "group": "intelsat", "lat": -0.017101355663958522, "lon": -70.86362124710881, "alt_km": 35776.38061260093, "timestamp": "2025-12-09T20:37:08.949403+00:00", "meta": {"OBJECT_NAME": "GALAXY 16 (G-16)", "OBJECT_ID": "2006-023A", "EPOCH": "2025-12-09T13:15:09.203040", "MEAN_MOTION": 1.002722, "ECCENTRICITY": 0.0002825, "INCLINATION": 0.037, "RA_OF_ASC_NODE": 155.0146, "ARG_OF_PERICENTER": 97.4048, "MEAN_ANOMALY": 285.8988, "EPHEMERIS_TYPE": 0, "CLASSIFICATION_TYPE": "U", "NORAD_CAT_ID": 29236, "ELEMENT_SET_NO": 999, "REV_AT_EPOCH": 7107, "BSTAR": 0, "MEAN_MOTION_DOT": -1.24e-06, "MEAN_MOTION_DDOT": 0}, "tle": {"line1": "1 29236U 06023A   25343.55218985 -.00000124  00000+0  00000+0 0  9999", "line2": "2 29236   0.0370 155.0146 0002825  97.4048 285.8988  1.00272200 71072"}}, "geometry": {"type": "Point", "coordinates": [-70.86362124710881, -0.017101355663958522]}}, {"type": "Feature", "properties": {"norad_id": 29494, "name": "DIRECTV 9S", "group": "intelsat", "lat": -0.7940723681715531, "lon": -73.08201720433404, "alt_km": 35774.4171396335, "timestamp": "2025-12-09T20:37:08.949415+00:00", "meta": {"OBJECT_NAME": "DIRECTV 9S", "OBJECT_ID": "2006-043A", "EPOCH": "2025-12-09T13:13:51.873312", "MEAN_MOTION": 1.00270727, "ECCENTRICITY": 0.00031569, "INCLINATION": 1.9321, "RA_OF_ASC_NODE": 83.2391, "ARG_OF_PERICENTER": 178.3097, "MEAN_ANOMALY": 274.2425, "EPHEMERIS_TYPE": 0, "CLASSIFICATION_TYPE": "U", "NORAD_CAT_ID": 29494, "ELEMENT_SET_NO": 999, "REV_AT_EPOCH": 4948, "BSTAR": 0, "MEAN_MOTION_DOT": -1.11e-06, "MEAN_MOTION_DDOT": 0}, "tle": {"line1": "1 29494U 06043A   25343.55129483 -.00000111  00000+0  00000+0 0  9997", "line2": "2 29494   1.9321  83.2391 0003156 178.3097 274.2425  1.00270727 49489"}}, "geometry": {"type": "Point", "coordinates": [-73.08201720433404, -0.7940723681715531]}}, {"type": "Feature", "properties": {"norad_id": 31307, "name": "GALAXY 17 (G-17)", "group": "intelsat", "lat": -1.64545844264163, "lon": -56.82840334711345, "alt_km": 35772.66210120606, "timestamp": "2025-12-09T20:37:08.949426+00:00", "meta": {"OBJECT_NAME": "GALAXY 17 (G-17)", "OBJECT_ID": "2007-016B", "EPOCH": "2025-12-09T12:27:47.151072", "MEAN_MOTION": 1.00272575, "ECCENTRICITY": 0.00060579, "INCLINATION": 2.4919, "RA_OF_ASC_NODE": 82.3182, "ARG_OF_PERICENTER": 162.3452, "MEAN_ANOMALY": 295.7984, "EPHEMERIS_TYPE": 0, "CLASSIFICATION_TYPE": "U", "NORAD_CAT_ID": 31307, "ELEMENT_SET_NO": 999, "REV_AT_EPOCH": 6790, "BSTAR": 0, "MEAN_MOTION_DOT": -2.04e-06, "MEAN_MOTION_DDOT": 0}, "tle": {"line1": "1 31307U 07016B   25343.51929573 -.00000204  00000+0  00000+0 0  9991", "line2": "2 31307   2.4919  82.3182 0006057 162.3452 295.7984  1.00272575 67901"}}, "geometry": {"type": "Point", "coordinates": [-56.82840334711345, -1.64545844264163]}}, {"type": "Feature", "properties": {"norad_id": 31862, "name": "DIRECTV 10", "group": "intelsat", "lat": 0.0004342866643013218, "lon": -74.6480008605236, "alt_km": 35784.9039088566, "timestamp": "2025-12-09T20:37:08.949438+00:00", "meta": {"OBJECT_NAME": "DIRECTV 10", "OBJECT_ID": "2007-032A", "EPOCH": "2025-12-09T13:13:12.949248", "MEAN_MOTION": 1.00272492, "ECCENTRICITY": 4.703e-05, "INCLINATION": 0.0192, "RA_OF_ASC_NODE": 153.4747, "ARG_OF_PERICENTER": 71.4117, "MEAN_ANOMALY": 309.1761, "EPHEMERIS_TYPE": 0, "CLASSIFICATION_TYPE": "U", "NORAD_CAT_ID": 31862, "ELEMENT_SET_NO": 999, "REV_AT_EPOCH": 4369, "BSTAR": 0, "MEAN_MOTION_DOT": -1.01e-06, "MEAN_MOTION_DDOT": 0}, "tle": {"line1": "1 31862U 07032A   25343.55084432 -.00000101  00000+0  00000+0 0  9991", "line2": "2 31862   0.0192 153.4747 0000470  71.4117 309.1761  1.00272492 43693"}}, "geometry": {"type": "Point", "coordinates": [-74.6480008605236, 0.0004342866643013218]}}, {"type": "Feature", "properties": {"norad_id": 32253, "name": "INTELSAT 11 (IS-11)", "group": "intelsat", "lat": -0.316159116979253, "lon": -93.47448031131253, "alt_km": 36096.469968962294, "timestamp": "2025-12-09T20:37:08.949451+00:00", "meta": {"OBJECT_NAME": "INTELSAT 11 (IS-11)", "OBJECT_ID": "2007-044B", "EPOCH": "2025-12-09T12:12:30.436704", "MEAN_MOTION": 0.99047745, "ECCENTRICITY": 0.00091056, "INCLINATION": 3.0719, "RA_OF_ASC_NODE": 81.01, "ARG_OF_PERICENTER": 164.5646, "MEAN_ANOMALY": 255.9589, "EPHEMERIS_TYPE": 0, "CLASSIFICATION_TYPE": "U", "NORAD_CAT_ID": 32253, "ELEMENT_SET_NO": 999, "REV_AT_EPOCH": 6657, "BSTAR": 0, "MEAN_MOTION_DOT": 7.3e-07, "MEAN_MOTION_DDOT": 0}, "tle": {"line1": "1 32253U 07044B   25343.50868561  .00000073  00000+0  00000+0 0  9994", "line2": "2 32253   3.0719  81.0100 0009105 164.5646 255.9589  0.99047745 66576"}}, "geometry": {"type": "Point", "coordinates": [-93.47448031131253, -0.316159116979253]}}, {"type": "Feature", "properties": {"norad_id": 32388, "name": "HORIZONS-2", "group": "intelsat", "lat": -1.6628236677894186, "lon": -45.63126755103141, "alt_km": 35771.51501897315, "timestamp": "2025-12-09T20:37:08.949468+00:00", "meta": {"OBJECT_NAME": "HORIZONS-2", "OBJECT_ID": "2007-063B", "EPOCH": "2025-12-09T12:34:03.796320", "MEAN_MOTION": 1.00270503, "ECCENTRICITY": 0.00050202, "INCLINATION": 2.1132, "RA_OF_ASC_NODE": 82.9918, "ARG_OF_PERICENTER": 187.0359, "MEAN_ANOMALY": 283.219, "EPHEMERIS_TYPE": 0, "CLASSIFICATION_TYPE": "U", "NORAD_CAT_ID": 32388, "ELEMENT_SET_NO": 999, "REV_AT_EPOCH": 6591, "BSTAR": 0, "MEAN_MOTION_DOT": -2.51e-06, "MEAN_MOTION_DDOT": 0}, "tle": {"line1": "1 32388U 07063B   25343.52365505 -.00000251  00000+0  00000+0 0  9995", "line2": "2 32388   2.1132  82.9918 0005020 187.0359 283.2190  1.00270503 65916"}}, "geometry": {"type": "Point", "coordinates": [-45.63126755103141, -1.6628236677894186]}}, {"type": "Feature", "properties": {"norad_id": 32729, "name": "DIRECTV 11", "group": "intelsat", "lat": -0.00450032469314745, "lon": -71.06134775797793, "alt_km": 35785.92776659481, "timestamp": "2025-12-09T20:37:08.949480+00:00", "meta": {"OBJECT_NAME": "DIRECTV 11", "OBJECT_ID": "2008-013A", "EPOCH": "2025-12-09T10:14:01.462848", "MEAN_MOTION": 1.0027202, "ECCENTRICITY": 4.14e-05, "INCLINATION": 0.0295, "RA_OF_ASC_NODE": 191.9729, "ARG_OF_PERICENTER": 10.0555, "MEAN_ANOMALY": 290.7006, "EPHEMERIS_TYPE": 0, "CLASSIFICATION_TYPE": "U", "NORAD_CAT_ID": 32729, "ELEMENT_SET_NO": 999, "REV_AT_EPOCH": 4369, "BSTAR": 0, "MEAN_MOTION_DOT": -1.23e-06, "MEAN_MOTION_DDOT": 0}, "tle": {"line1": "1 32729U 08013A   25343.42640582 -.00000123  00000+0  00000+0 0  9998", "line2": "2 32729   0.0295 191.9729 0000414  10.0555 290.7006  1.00272020 43694"}}, "geometry": {"type": "Point", "coordinates": [-71.06134775797793, -0.00450032469314745]}}, {"type": "Feature", "properties": {"norad_id": 32951, "name": "GALAXY 18 (G-18)", "group": "intelsat", "lat": -0.019343492933363887, "lon": -94.8770750482335, "alt_km": 35772.43963098562, "timestamp": "2025-12-09T20:37:08.949492+00:00", "meta": {"OBJECT_NAME": "GALAXY 18 (G-18)", "OBJECT_ID": "2008-024A", "EPOCH": "2025-12-09T12:07:22.423296", "MEAN_MOTION": 1.002726, "ECCENTRICITY": 0.00031714, "INCLINATION": 0.012, "RA_OF_ASC_NODE": 294.9063, "ARG_OF_PERICENTER": 326.3932, "MEAN_ANOMALY": 236.0303, "EPHEMERIS_TYPE": 0, "CLASSIFICATION_TYPE": "U", "NORAD_CAT_ID": 32951, "ELEMENT_SET_NO": 999, "REV_AT_EPOCH": 4395, "BSTAR": 0, "MEAN_MOTION_DOT": 2.7e-07, "MEAN_MOTION_DDOT": 0}, "tle": {"line1": "1 32951U 08024A   25343.50512064  .00000027  00000+0  00000+0 0  9991", "line2": "2 32951   0.0120 294.9063 0003171 326.3932 236.0303  1.00272600 43954"}}, "geometry": {"type": "Point", "coordinates": [-94.8770750482335, -0.019343492933363887]}}]}